BEIDOU G1               
1 36287U 10001A   17356.91179149 -.00000275  00000-0  00000-0 0  9996
2 36287   1.4899  12.0335 0003407 198.2048 349.6397  1.00268400 29103
BEIDOU G3               
1 36590U 10024A   17357.24421111 -.00000346  00000-0  00000+0 0  9992
2 36590   1.4977  33.5459 0007280 307.6439 309.2760  1.00272932 27711
BEIDOU IGSO 1           
1 36828U 10036A   17356.89496050 -.00000072  00000-0  10000-3 0  9994
2 36828  54.1576 191.6457 0059807 227.4252 113.9192  1.00270536 27147
BEIDOU G4               
1 37210U 10057A   17357.20804187 -.00000103  00000-0  00000+0 0  9993
2 37210   1.0124  58.2454 0007302 193.3242  75.2027  1.00273460 26225
BEIDOU IGSO 2           
1 37256U 10068A   17357.55804097 -.00000214  00000-0  10000-3 0  9991
2 37256  52.8821 309.0463 0060896 206.6092 257.1671  1.00280664 25744
BEIDOU IGSO 3           
1 37384U 11013A   17357.45933703 -.00000188  00000-0  10000-3 0  9990
2 37384  58.0675  70.9628 0033320 206.8124 100.1144  1.00261393 24613
BEIDOU IGSO 4           
1 37763U 11038A   17357.31632468 -.00000018  00000-0  10000-3 0  9999
2 37763  54.4637 194.0270 0047732 215.0820 252.9573  1.00275116 23585
BEIDOU IGSO 5           
1 37948U 11073A   17357.21972176 -.00000152  00000-0  10000-3 0  9994
2 37948  52.9583 308.5374 0052012 208.7005 108.1102  1.00289938 22330
BEIDOU G5               
1 38091U 12008A   17356.90740480  .00000065  00000-0  00000-0 0  9997
2 38091   1.9800  59.2236 0005351 231.4928 186.3286  1.00269364 21414
BEIDOU M3               
1 38250U 12018A   17356.62386705 -.00000062  00000-0  10000-3 0  9992
2 38250  56.3594  47.8357 0025688 228.0898 271.5270  1.86234294 38589
BEIDOU M4               
1 38251U 12018B   17356.55227981 -.00000062  00000-0  10000-3 0  9995
2 38251  56.2944  47.2600 0027963 222.4384 276.9005  1.86233579 38589
BEIDOU M6               
1 38775U 12050B   17357.40690561  .00000090  00000-0  00000+0 0  9990
2 38775  54.8610 166.9003 0019151 232.7127 315.9875  1.86233043 35974
BEIDOU G6               
1 38953U 12059A   17357.10254529 -.00000167  00000-0  00000+0 0  9990
2 38953   1.4864  80.5301 0004133 181.7990 310.5300  1.00270254 18985
BEIDOU I1-S             
1 40549U 15019A   17356.94037160 -.00000148  00000-0  00000+0 0  9993
2 40549  54.2120 331.6153 0042020 193.4477 357.3099  1.00255372 10016
BEIDOU-3 M1             
1 40748U 15037A   17356.68325457 -.00000063  00000-0  00000+0 0  9990
2 40748  55.5663  47.1061 0008532 257.7730 240.0158  1.86231357 16411
BEIDOU-3 M2             
1 40749U 15037B   17357.38398897 -.00000062  00000-0  00000+0 0  9996
2 40749  55.5682  47.0692 0009218 273.8306 110.4663  1.86232375 16425
BEIDOU I2-S             
1 40938U 15053A   17357.43392463 -.00000130  00000-0  00000+0 0  9999
2 40938  53.9455 294.5356 0047581 175.6844 231.2494  1.00296366  8300
BEIDOU M3-S             
1 41315U 16006A   17357.32442813  .00000090  00000-0  00000+0 0  9995
2 41315  55.0458 167.1633 0001775 354.2959   5.7004  1.86230678 12906
BEIDOU IGSO 6           
1 41434U 16021A   17357.12225889 -.00000149  00000-0  10000-3 0  9995
2 41434  55.7927  70.3272 0031877 184.9890 336.7298  1.00268623  6427
BEIDOU G7               
1 41586U 16037A   17356.34526818 -.00000238  00000-0  00000+0 0  9993
2 41586   0.9648 329.8506 0003662 290.0844 100.0340  1.00272917  5721
BEIDOU-3 M1             
1 43001U 17069A   17357.16166973  .00000087  00000-0  00000+0 0  9997
2 43001  55.0163 166.6905 0007225 278.5058 239.3914  1.86231831   907
BEIDOU-3 M2             
1 43002U 17069B   17356.85394664  .00000084  00000-0  00000+0 0  9990
2 43002  55.0165 166.7356 0007134 305.6970  50.8512  1.86231687   881
